OBJECT_NAME,OBJECT_ID,EPOCH,MEAN_MOTION,ECCENTRICITY,INCLINATION,RA_OF_ASC_NODE,ARG_OF_PERICENTER,MEAN_ANOMALY,EPHEMERIS_TYPE,CLASSIFICATION_TYPE,NORAD_CAT_ID,ELEMENT_SET_NO,REV_AT_EPOCH,BSTAR,MEAN_MOTION_DOT,MEAN_MOTION_DDOT
HORUS 1,2023-025A,2026-06-06T20:11:06.924768,15.23493396,.0002047,97.3459,232.6527,129.5649,230.5769,0,U,55690,999,18247,.28942E-3,.6837E-4,0
HORUS 2,2023-032A,2026-06-06T19:26:35.878272,15.23317065,.0002097,97.3531,233.4196,114.2984,245.8472,0,U,55844,999,17990,.30713E-3,.7222E-4,0
GLOBAL-19,2023-041B,2026-06-06T18:32:56.694624,15.38119609,.0009019,42.0027,262.6048,291.1396,68.8479,0,U,55982,999,18032,.4279E-3,.16213E-3,0
BRO-9,2023-054H,2026-06-06T19:36:25.452864,15.94551736,.0006615,97.2932,75.4493,132.8647,227.3185,0,U,56185,999,17743,.12928E-2,.486014E-2,.96877E-4
ION SCV-010,2023-054Q,2026-06-06T09:46:09.421536,15.26104570,.00113412,97.3791,47.0457,238.4142,121.5990,0,U,56192,999,17455,.22983668E-3,.5865E-4,0
TELEOS-2,2023-057C,2026-06-05T21:24:30.760416,14.96374255,.0001117,9.9854,286.4560,55.0249,305.0069,0,U,56310,999,17110,-.2069E-3,-.1719E-4,0
SNIPE 4,2023-072B,2026-06-06T19:58:13.495296,15.41944466,.0005383,97.5263,3.5115,18.9451,341.1995,0,U,56744,999,16851,.57918E-3,.24611E-3,0
SNIPE 2,2023-072C,2026-06-06T20:09:37.010880,15.46340502,.0005277,97.5257,6.4928,48.8877,311.2827,0,U,56745,999,16864,.64346E-3,.31763E-3,0
2023-072G,2023-072G,2026-06-06T20:45:39.708288,15.49988456,.0004007,97.4920,5.3103,41.1727,318.9826,0,U,56749,999,16886,.66071E-3,.37046E-3,0
GEISAT PRECURSOR,2023-084C,2026-06-06T20:25:34.271904,15.34511231,.0005934,97.6214,298.4662,35.1083,325.0549,0,U,56934,999,16594,.26195E-3,.8678E-4,0
BLACKJACK ACES-3,2023-084U,2026-06-06T15:01:47.388288,15.18412744,.0003475,97.6202,292.7388,62.2319,297.9267,0,U,56950,999,16556,.31844E-3,.6484E-4,0
BLACKJACK ACES-2,2023-084Z,2026-06-06T16:46:16.387392,15.18482005,.0001708,97.6200,292.8959,72.8168,287.3252,0,U,56955,999,16558,.41336E-3,.8456E-4,0
BLACKJACK ACES-1,2023-084AA,2026-06-05T21:30:26.284320,15.18458699,.0001335,97.6191,291.8617,96.4000,263.7386,0,U,56956,999,11518,.43851E-3,.8969E-4,0
ION SCV-011,2023-084AB,2026-06-06T11:06:44.640288,15.28741173,.0008477,98.1385,343.7497,78.1671,282.0517,0,U,56957,999,16417,.24193955E-3,.6679E-4,0
GHOST-3,2023-084AC,2026-06-06T16:33:03.813408,15.47539229,.0005749,97.6206,305.7026,338.5654,21.5354,0,U,56958,999,16639,.43322E-3,.2223E-3,0
TOMORROW-R2,2023-084AG,2026-06-06T04:27:51.394464,15.99232517,.00062281,97.5980,319.8732,249.2732,110.7878,0,U,56962,999,16729,.89380965E-3,.433704E-2,.81954079E-4
AFR-1,2023-084AJ,2026-06-06T19:45:42.640416,15.28468100,.0010904,97.6263,294.2667,23.3792,336.7940,0,U,56964,999,16564,.19923E-3,.545E-4,0
METEOR-M2 3,2023-091A,2026-06-06T20:09:50.912640,14.24045981,.0003753,98.6086,213.0298,183.3761,176.7394,0,U,57166,999,15304,.21543E-4,.6E-7,0
UMKA 1 (RS40S),2023-091G,2026-06-06T19:54:13.546944,15.20698386,.0013718,97.5051,216.5671,150.2225,209.9794,0,U,57172,999,16243,.33627E-3,.7341E-4,0
2023-091H,2023-091H,2026-06-06T20:08:58.064352,15.28410347,.0010946,97.5049,220.9494,144.6057,215.5911,0,U,57173,999,16272,.48231E-3,.13297E-3,0
2023-091J,2023-091J,2026-06-06T19:28:05.414592,15.13856295,.0013433,97.5057,211.0558,176.7716,183.3605,0,U,57174,999,16206,.2336E-3,.4166E-4,0
CUBEBEL 2 (EU11S),2023-091K,2026-06-06T20:15:07.057152,15.28902621,.0010974,97.5052,220.9703,146.2864,213.9076,0,U,57175,999,16272,.52072E-3,.14583E-3,0
SITRO-AIS 5 (KATYS),2023-091L,2026-06-06T20:42:37.411200,15.29216361,.001261,97.5060,221.6659,135.4950,224.7305,0,U,57176,999,16276,.52112E-3,.14744E-3,0
ZORKIY-2M 1,2023-091M,2026-06-06T19:35:23.224128,15.20766279,.0014326,97.5092,216.8153,147.7244,212.4870,0,U,57177,999,16242,.35801E-3,.7838E-4,0
CUBESX-HSE 3 (RS42S),2023-091N,2026-06-06T20:20:43.420992,15.30952262,.0012082,97.5091,223.3063,126.5260,233.7095,0,U,57178,999,16284,.53719E-3,.16038E-3,0
MONITOR-3 (RS58S),2023-091Q,2026-06-06T20:23:23.680032,15.27631665,.0012974,97.5084,221.2214,132.8033,227.4299,0,U,57180,999,16271,.47542E-3,.12806E-3,0
MONITOR-4 (RS57S),2023-091S,2026-06-06T19:54:06.286752,15.27727015,.001295,97.5077,221.1714,133.1357,227.0967,0,U,57182,999,16271,.42489E-3,.11468E-3,0
MONITOR-2 (RS39S),2023-091U,2026-06-06T20:06:13.905216,15.18813242,.0012265,97.5074,216.1880,142.9965,217.2118,0,U,57184,999,16238,.29592E-3,.6102E-4,0
SVYATOBOR 1 (RS60S),2023-091X,2026-06-06T20:00:16.070112,15.26438179,.0010837,97.5089,221.5945,125.4585,234.7666,0,U,57187,999,16273,.39012E-3,.1011E-3,0
HORS 1,2023-091Y,2026-06-06T19:40:27.626016,15.26539116,.0010298,97.5066,221.3445,125.0133,235.2073,0,U,57188,999,16273,.4041E-3,.10506E-3,0
